{"type": "FeatureCollection", "features": [ {"type": "Feature", "properties": {"norad_id": 66536, "name": "STARLINK-35640", "group": "last-30-days", "lat": -19.248786006358625, "lon": 43.81082791643609, "alt_km": 416.42989292411403, "timestamp": "2025-12-10T16:57:10.415866+00:00", "meta": {"OBJECT_NAME": "STARLINK-35640", "OBJECT_ID": "2025-265W", "EPOCH": "2025-12-10T12:00:02.998944", "MEAN_MOTION": 15.50658602, "ECCENTRICITY": 0.000141, "INCLINATION": 42.9997, "RA_OF_ASC_NODE": 67.026, "ARG_OF_PERICENTER": 269.4899, "MEAN_ANOMALY": 348.46, "EPHEMERIS_TYPE": 0, "CLASSIFICATION_TYPE": "U", "NORAD_CAT_ID": 66536, "ELEMENT_SET_NO": 999, "REV_AT_EPOCH": 461, "BSTAR": -0.0032479, "MEAN_MOTION_DOT": -0.00186931, "MEAN_MOTION_DDOT": 0}, "tle": {"line1": "1 66536U 25265W   25344.50003471 -.00186931  00000+0 -32479-2 0  9990", "line2": "2 66536  42.9997  67.0260 0001410 269.4899 348.4600 15.50658602  4616"}}, "geometry": {"type": "Point", "coordinates": [43.81082791643609, -19.248786006358625]}}, {"type": "Feature", "properties": {"norad_id": 66537, "name": "STARLINK-35582", "group": "last-30-days", "lat": -18.033257243026615, "lon": 45.365185982829296, "alt_km": 416.48654748577064, "timestamp": "2025-12-10T16:57:10.415876+00:00", "meta": {"OBJECT_NAME": "STARLINK-35582", "OBJECT_ID": "2025-265X", "EPOCH": "2025-12-10T12:00:02.998944", "MEAN_MOTION": 15.50648869, "ECCENTRICITY": 0.0001367, "INCLINATION": 42.9998, "RA_OF_ASC_NODE": 67.0215, "ARG_OF_PERICENTER": 261.8903, "MEAN_ANOMALY": 357.9777, "EPHEMERIS_TYPE": 0, "CLASSIFICATION_TYPE": "U", "NORAD_CAT_ID": 66537, "ELEMENT_SET_NO": 999, "REV_AT_EPOCH": 463, "BSTAR": -0.0029602, "MEAN_MOTION_DOT": -0.00170696, "MEAN_MOTION_DDOT": 0}, "tle": {"line1": "1 66537U 25265X   25344.50003471 -.00170696  00000+0 -29602-2 0  9996", "line2": "2 66537  42.9998  67.0215 0001367 261.8903 357.9777 15.50648869  4637"}}, "geometry": {"type": "Point", "coordinates": [45.365185982829296, -18.033257243026615]}}, {"type": "Feature", "properties": {"norad_id": 66538, "name": "STARLINK-35577", "group": "last-30-days", "lat": -16.796823400595017, "lon": 46.90844369016484, "alt_km": 416.23592783714867, "timestamp": "2025-12-10T16:57:10.415888+00:00", "meta": {"OBJECT_NAME": "STARLINK-35577", "OBJECT_ID": "2025-265Y", "EPOCH": "2025-12-10T12:00:02.998944", "MEAN_MOTION": 15.50669847, "ECCENTRICITY": 0.0001414, "INCLINATION": 42.9999, "RA_OF_ASC_NODE": 67.0168, "ARG_OF_PERICENTER": 271.0615, "MEAN_ANOMALY": 350.7251, "EPHEMERIS_TYPE": 0, "CLASSIFICATION_TYPE": "U", "NORAD_CAT_ID": 66538, "ELEMENT_SET_NO": 999, "REV_AT_EPOCH": 463, "BSTAR": -0.0036904, "MEAN_MOTION_DOT": -0.00211772, "MEAN_MOTION_DDOT": 0}, "tle": {"line1": "1 66538U 25265Y   25344.50003471 -.00211772  00000+0 -36904-2 0  9991", "line2": "2 66538  42.9999  67.0168 0001414 271.0615 350.7251 15.50669847  4639"}}, "geometry": {"type": "Point", "coordinates": [46.90844369016484, -16.796823400595017]}}, {"type": "Feature", "properties": {"norad_id": 66539, "name": "STARLINK-35697", "group": "last-30-days", "lat": -15.560899762326578, "lon": 48.41608754060378, "alt_km": 416.14290044552035, "timestamp": "2025-12-10T16:57:10.415898+00:00", "meta": {"OBJECT_NAME": "STARLINK-35697", "OBJECT_ID": "2025-265Z", "EPOCH": "2025-12-10T12:00:02.998944", "MEAN_MOTION": 15.5064802, "ECCENTRICITY": 0.0001435, "INCLINATION": 42.9999, "RA_OF_ASC_NODE": 67.0111, "ARG_OF_PERICENTER": 271.558, "MEAN_ANOMALY": 352.146, "EPHEMERIS_TYPE": 0, "CLASSIFICATION_TYPE": "U", "NORAD_CAT_ID": 66539, "ELEMENT_SET_NO": 999, "REV_AT_EPOCH": 463, "BSTAR": -0.0028767, "MEAN_MOTION_DOT": -0.00165983, "MEAN_MOTION_DDOT": 0}, "tle": {"line1": "1 66539U 25265Z   25344.50003471 -.00165983  00000+0 -28767-2 0  9992", "line2": "2 66539  42.9999  67.0111 0001435 271.5580 352.1460 15.50648020  4635"}}, "geometry": {"type": "Point", "coordinates": [48.41608754060378, -15.560899762326578]}}, {"type": "Feature", "properties": {"norad_id": 66540, "name": "STARLINK-35818", "group": "last-30-days", "lat": -14.312710655406278, "lon": 49.90952658320631, "alt_km": 416.0178828133876, "timestamp": "2025-12-10T16:57:10.415907+00:00", "meta": {"OBJECT_NAME": "STARLINK-35818", "OBJECT_ID": "2025-265AA", "EPOCH": "2025-12-10T12:00:02.998944", "MEAN_MOTION": 15.50635103, "ECCENTRICITY": 0.000145, "INCLINATION": 42.9999, "RA_OF_ASC_NODE": 67.0069, "ARG_OF_PERICENTER": 274.2179, "MEAN_ANOMALY": 351.4043, "EPHEMERIS_TYPE": 0, "CLASSIFICATION_TYPE": "U", "NORAD_CAT_ID": 66540, "ELEMENT_SET_NO": 999, "REV_AT_EPOCH": 463, "BSTAR": -0.0025145, "MEAN_MOTION_DOT": -0.0014544, "MEAN_MOTION_DDOT": 0}, "tle": {"line1": "1 66540U 25265AA  25344.50003471 -.00145440  00000+0 -25145-2 0  9997", "line2": "2 66540  42.9999  67.0069 0001450 274.2179 351.4043 15.50635103  4637"}}, "geometry": {"type": "Point", "coordinates": [49.90952658320631, -14.312710655406278]}}, {"type": "Feature", "properties": {"norad_id": 66541, "name": "STARLINK-35796", "group": "last-30-days", "lat": -13.048679482345134, "lon": 51.39284364845111, "alt_km": 415.9304782781901, "timestamp": "2025-12-10T16:57:10.415917+00:00", "meta": {"OBJECT_NAME": "STARLINK-35796", "OBJECT_ID": "2025-265AB", "EPOCH": "2025-12-10T12:00:02.998944", "MEAN_MOTION": 15.50640379, "ECCENTRICITY": 0.0001469, "INCLINATION": 42.9998, "RA_OF_ASC_NODE": 67.0016, "ARG_OF_PERICENTER": 273.0856, "MEAN_ANOMALY": 354.4555, "EPHEMERIS_TYPE": 0, "CLASSIFICATION_TYPE": "U", "NORAD_CAT_ID": 66541, "ELEMENT_SET_NO": 999, "REV_AT_EPOCH": 463, "BSTAR": -0.0027064, "MEAN_MOTION_DOT": -0.00156329, "MEAN_MOTION_DDOT": 0}, "tle": {"line1": "1 66541U 25265AB  25344.50003471 -.00156329  00000+0 -27064-2 0  9998", "line2": "2 66541  42.9998  67.0016 0001469 273.0856 354.4555 15.50640379  4630"}}, "geometry": {"type": "Point", "coordinates": [51.39284364845111, -13.048679482345134]}}, {"type": "Feature", "properties": {"norad_id": 66542, "name": "STARLINK-35833", "group": "last-30-days", "lat": -11.773942910209746, "lon": 52.86458119928491, "alt_km": 415.8914691096752, "timestamp": "2025-12-10T16:57:10.415927+00:00", "meta": {"OBJECT_NAME": "STARLINK-35833", "OBJECT_ID": "2025-265AC", "EPOCH": "2025-12-10T12:00:02.998944", "MEAN_MOTION": 15.50661791, "ECCENTRICITY": 0.000142, "INCLINATION": 42.9997, "RA_OF_ASC_NODE": 66.9973, "ARG_OF_PERICENTER": 268.8566, "MEAN_ANOMALY": 0.5994, "EPHEMERIS_TYPE": 0, "CLASSIFICATION_TYPE": "U", "NORAD_CAT_ID": 66542, "ELEMENT_SET_NO": 999, "REV_AT_EPOCH": 463, "BSTAR": -0.0033664, "MEAN_MOTION_DOT": -0.00193598, "MEAN_MOTION_DDOT": 0}, "tle": {"line1": "1 66542U 25265AC  25344.50003471 -.00193598  00000+0 -33664-2 0  9991", "line2": "2 66542  42.9997  66.9973 0001420 268.8566   0.5994 15.50661791  4634"}}, "geometry": {"type": "Point", "coordinates": [52.86458119928491, -11.773942910209746]}}, {"type": "Feature", "properties": {"norad_id": 66543, "name": "STARLINK-35315", "group": "last-30-days", "lat": -10.50644528962435, "lon": 54.30438141482255, "alt_km": 415.71741701678457, "timestamp": "2025-12-10T16:57:10.415936+00:00", "meta": {"OBJECT_NAME": "STARLINK-35315", "OBJECT_ID": "2025-265AD", "EPOCH": "2025-12-10T12:00:02.998944", "MEAN_MOTION": 15.50630742, "ECCENTRICITY": 0.0001484, "INCLINATION": 42.9998, "RA_OF_ASC_NODE": 66.9913, "ARG_OF_PERICENTER": 273.523, "MEAN_ANOMALY": 357.8493, "EPHEMERIS_TYPE": 0, "CLASSIFICATION_TYPE": "U", "NORAD_CAT_ID": 66543, "ELEMENT_SET_NO": 999, "REV_AT_EPOCH": 452, "BSTAR": -0.0023272, "MEAN_MOTION_DOT": -0.0013479, "MEAN_MOTION_DDOT": 0}, "tle": {"line1": "1 66543U 25265AD  25344.50003471 -.00134790  00000+0 -23272-2 0  9995", "line2": "2 66543  42.9998  66.9913 0001484 273.5230 357.8493 15.50630742  4523"}}, "geometry": {"type": "Point", "coordinates": [54.30438141482255, -10.50644528962435]}}, {"type": "Feature", "properties": {"norad_id": 66544, "name": "STARLINK-35728", "group": "last-30-days", "lat": -9.306089128766516, "lon": 55.65148437573586, "alt_km": 415.55605761490006, "timestamp": "2025-12-10T16:57:10.415946+00:00", "meta": {"OBJECT_NAME": "STARLINK-35728", "OBJECT_ID": "2025-265AE", "EPOCH": "2025-12-10T12:00:02.998944", "MEAN_MOTION": 15.50488163, "ECCENTRICITY": 0.0001792, "INCLINATION": 42.9994, "RA_OF_ASC_NODE": 66.9869, "ARG_OF_PERICENTER": 280.8743, "MEAN_ANOMALY": 352.359, "EPHEMERIS_TYPE": 0, "CLASSIFICATION_TYPE": "U", "NORAD_CAT_ID": 66544, "ELEMENT_SET_NO": 999, "REV_AT_EPOCH": 463, "BSTAR": 0.0016603, "MEAN_MOTION_DOT": 0.00097972, "MEAN_MOTION_DDOT": 0}, "tle": {"line1": "1 66544U 25265AE  25344.50003471  .00097972  00000+0  16603-2 0  9994", "line2": "2 66544  42.9994  66.9869 0001792 280.8743 352.3590 15.50488163  4630"}}, "geometry": {"type": "Point", "coordinates": [55.65148437573586, -9.306089128766516]}}, {"type": "Feature", "properties": {"norad_id": 66545, "name": "SHIJIAN-30A", "group": "last-30-days", "lat": -26.94053387762758, "lon": -41.20431715547223, "alt_km": 514.6611945568484, "timestamp": "2025-12-10T16:57:10.415959+00:00", "meta": {"OBJECT_NAME": "SHIJIAN-30A", "OBJECT_ID": "2025-266A", "EPOCH": "2025-12-10T12:21:35.002944", "MEAN_MOTION": 15.15576851, "ECCENTRICITY": 0.0012757, "INCLINATION": 51.7988, "RA_OF_ASC_NODE": 343.2848, "ARG_OF_PERICENTER": 348.3559, "MEAN_ANOMALY": 11.7121, "EPHEMERIS_TYPE": 0, "CLASSIFICATION_TYPE": "U", "NORAD_CAT_ID": 66545, "ELEMENT_SET_NO": 999, "REV_AT_EPOCH": 324, "BSTAR": 0.00082682, "MEAN_MOTION_DOT": 0.00015643, "MEAN_MOTION_DDOT": 0}, "tle": {"line1": "1 66545U 25266A   25344.51498846  .00015643  00000+0  82682-3 0  9997", "line2": "2 66545  51.7988 343.2848 0012757 348.3559  11.7121 15.15576851  3243"}}, "geometry": {"type": "Point", "coordinates": [-41.20431715547223, -26.94053387762758]}}]}